{"type": "FeatureCollection", "features": [ {"type": "Feature", "properties": {"norad_id": 45358, "name": "COSMOS 2545 (760)", "group": "glo-ops", "lat": -63.04294937967153, "lon": -150.9483924376678, "alt_km": 19107.118359517128, "timestamp": "2025-12-08T13:49:32.053736+00:00", "meta": {"OBJECT_NAME": "COSMOS 2545 (760)", "OBJECT_ID": "2020-018A", "EPOCH": "2025-12-08T05:39:23.903712", "MEAN_MOTION": 2.13102411, "ECCENTRICITY": 0.00117234, "INCLINATION": 64.4721, "RA_OF_ASC_NODE": 319.1278, "ARG_OF_PERICENTER": 249.0767, "MEAN_ANOMALY": 110.7922, "EPHEMERIS_TYPE": 0, "CLASSIFICATION_TYPE": "U", "NORAD_CAT_ID": 45358, "ELEMENT_SET_NO": 999, "REV_AT_EPOCH": 4459, "BSTAR": 0, "MEAN_MOTION_DOT": -5e-07, "MEAN_MOTION_DDOT": 0}, "tle": {"line1": "1 45358U 20018A   25342.23569333 -.00000050  00000+0  00000+0 0  9990", "line2": "2 45358  64.4721 319.1278 0011723 249.0767 110.7922  2.13102411 44590"}}, "geometry": {"type": "Point", "coordinates": [-150.9483924376678, -63.04294937967153]}}, {"type": "Feature", "properties": {"norad_id": 46805, "name": "COSMOS 2547 (705K)", "group": "glo-ops", "lat": 53.74155949506819, "lon": -21.54995702569663, "alt_km": 19129.967471920212, "timestamp": "2025-12-08T13:49:32.053747+00:00", "meta": {"OBJECT_NAME": "COSMOS 2547 (705K)", "OBJECT_ID": "2020-075A", "EPOCH": "2025-12-07T22:54:27.999936", "MEAN_MOTION": 2.13099949, "ECCENTRICITY": 0.00062185, "INCLINATION": 64.596, "RA_OF_ASC_NODE": 198.8564, "ARG_OF_PERICENTER": 228.8188, "MEAN_ANOMALY": 131.2072, "EPHEMERIS_TYPE": 0, "CLASSIFICATION_TYPE": "U", "NORAD_CAT_ID": 46805, "ELEMENT_SET_NO": 999, "REV_AT_EPOCH": 3983, "BSTAR": 0, "MEAN_MOTION_DOT": 5.3e-07, "MEAN_MOTION_DDOT": 0}, "tle": {"line1": "1 46805U 20075A   25341.95449074  .00000053  00000+0  00000+0 0  9990", "line2": "2 46805  64.5960 198.8564 0006218 228.8188 131.2072  2.13099949 39835"}}, "geometry": {"type": "Point", "coordinates": [-21.54995702569663, 53.74155949506819]}}, {"type": "Feature", "properties": {"norad_id": 52984, "name": "COSMOS 2557 (706K)", "group": "glo-ops", "lat": -8.97310816213062, "lon": -43.15263926636068, "alt_km": 19121.405685007943, "timestamp": "2025-12-08T13:49:32.053760+00:00", "meta": {"OBJECT_NAME": "COSMOS 2557 (706K)", "OBJECT_ID": "2022-075A", "EPOCH": "2025-12-07T04:21:00.419904", "MEAN_MOTION": 2.13101754, "ECCENTRICITY": 0.00137049, "INCLINATION": 64.4129, "RA_OF_ASC_NODE": 321.247, "ARG_OF_PERICENTER": 276.9, "MEAN_ANOMALY": 82.939, "EPHEMERIS_TYPE": 0, "CLASSIFICATION_TYPE": "U", "NORAD_CAT_ID": 52984, "ELEMENT_SET_NO": 999, "REV_AT_EPOCH": 2662, "BSTAR": 0, "MEAN_MOTION_DOT": -5.2e-07, "MEAN_MOTION_DDOT": 0}, "tle": {"line1": "1 52984U 22075A   25341.18125486 -.00000052  00000+0  00000+0 0  9990", "line2": "2 52984  64.4129 321.2470 0013704 276.9000  82.9390  2.13101754 26625"}}, "geometry": {"type": "Point", "coordinates": [-43.15263926636068, -8.97310816213062]}}, {"type": "Feature", "properties": {"norad_id": 54031, "name": "COSMOS 2559 (707K)", "group": "glo-ops", "lat": 44.74354438734521, "lon": 112.8911849417254, "alt_km": 19111.424648275657, "timestamp": "2025-12-08T13:49:32.053773+00:00", "meta": {"OBJECT_NAME": "COSMOS 2559 (707K)", "OBJECT_ID": "2022-130A", "EPOCH": "2025-12-07T22:32:04.492896", "MEAN_MOTION": 2.1310126, "ECCENTRICITY": 0.00119368, "INCLINATION": 64.385, "RA_OF_ASC_NODE": 321.31, "ARG_OF_PERICENTER": 192.6499, "MEAN_ANOMALY": 167.316, "EPHEMERIS_TYPE": 0, "CLASSIFICATION_TYPE": "U", "NORAD_CAT_ID": 54031, "ELEMENT_SET_NO": 999, "REV_AT_EPOCH": 2461, "BSTAR": 0, "MEAN_MOTION_DOT": -5.2e-07, "MEAN_MOTION_DDOT": 0}, "tle": {"line1": "1 54031U 22130A   25341.93894089 -.00000052  00000+0  00000+0 0  9992", "line2": "2 54031  64.3850 321.3100 0011936 192.6499 167.3160  2.13101260 24614"}}, "geometry": {"type": "Point", "coordinates": [112.8911849417254, 44.74354438734521]}}, {"type": "Feature", "properties": {"norad_id": 54377, "name": "COSMOS 2564 (761)", "group": "glo-ops", "lat": -57.18106382747662, "lon": 66.11472442707992, "alt_km": 19119.802347926186, "timestamp": "2025-12-08T13:49:32.053784+00:00", "meta": {"OBJECT_NAME": "COSMOS 2564 (761)", "OBJECT_ID": "2022-161A", "EPOCH": "2025-12-06T20:16:19.958016", "MEAN_MOTION": 2.13101987, "ECCENTRICITY": 0.0008674, "INCLINATION": 64.7378, "RA_OF_ASC_NODE": 199.0949, "ARG_OF_PERICENTER": 205.6872, "MEAN_ANOMALY": 154.3558, "EPHEMERIS_TYPE": 0, "CLASSIFICATION_TYPE": "U", "NORAD_CAT_ID": 54377, "ELEMENT_SET_NO": 999, "REV_AT_EPOCH": 2353, "BSTAR": 0, "MEAN_MOTION_DOT": 6.7e-07, "MEAN_MOTION_DDOT": 0}, "tle": {"line1": "1 54377U 22161A   25340.84467544  .00000067  00000+0  00000+0 0  9995", "line2": "2 54377  64.7378 199.0949 0008674 205.6872 154.3558  2.13101987 23535"}}, "geometry": {"type": "Point", "coordinates": [66.11472442707992, -57.18106382747662]}}, {"type": "Feature", "properties": {"norad_id": 57517, "name": "COSMOS 2569 (703K)", "group": "glo-ops", "lat": -50.22253715388534, "lon": -67.24898442859283, "alt_km": 19118.300652767164, "timestamp": "2025-12-08T13:49:32.053795+00:00", "meta": {"OBJECT_NAME": "COSMOS 2569 (703K)", "OBJECT_ID": "2023-114A", "EPOCH": "2025-12-07T19:07:05.045952", "MEAN_MOTION": 2.13103857, "ECCENTRICITY": 0.00103488, "INCLINATION": 65.1916, "RA_OF_ASC_NODE": 79.0806, "ARG_OF_PERICENTER": 287.0317, "MEAN_ANOMALY": 72.8691, "EPHEMERIS_TYPE": 0, "CLASSIFICATION_TYPE": "U", "NORAD_CAT_ID": 57517, "ELEMENT_SET_NO": 999, "REV_AT_EPOCH": 1818, "BSTAR": 0, "MEAN_MOTION_DOT": -1.2e-07, "MEAN_MOTION_DDOT": 0}, "tle": {"line1": "1 57517U 23114A   25341.79658618 -.00000012  00000+0  00000+0 0  9993", "line2": "2 57517  65.1916  79.0806 0010348 287.0317  72.8691  2.13103857 18180"}}, "geometry": {"type": "Point", "coordinates": [-67.24898442859283, -50.22253715388534]}}, {"type": "Feature", "properties": {"norad_id": 63130, "name": "COSMOS 2584 (704K)", "group": "glo-ops", "lat": -31.283718615663286, "lon": 62.83080043530263, "alt_km": 19140.38545233311, "timestamp": "2025-12-08T13:49:32.053806+00:00", "meta": {"OBJECT_NAME": "COSMOS 2584 (704K)", "OBJECT_ID": "2025-042A", "EPOCH": "2025-12-08T03:39:29.178720", "MEAN_MOTION": 2.13102925, "ECCENTRICITY": 0.0007602, "INCLINATION": 64.9737, "RA_OF_ASC_NODE": 79.3022, "ARG_OF_PERICENTER": 215.9611, "MEAN_ANOMALY": 144.0025, "EPHEMERIS_TYPE": 0, "CLASSIFICATION_TYPE": "U", "NORAD_CAT_ID": 63130, "ELEMENT_SET_NO": 999, "REV_AT_EPOCH": 597, "BSTAR": 0, "MEAN_MOTION_DOT": -1.2e-07, "MEAN_MOTION_DDOT": 0}, "tle": {"line1": "1 63130U 25042A   25342.15242105 -.00000012  00000+0  00000+0 0  9994", "line2": "2 63130  64.9737  79.3022 0007602 215.9611 144.0025  2.13102925  5976"}}, "geometry": {"type": "Point", "coordinates": [62.83080043530263, -31.283718615663286]}}, {"type": "Feature", "properties": {"norad_id": 65590, "name": "COSMOS 2596 (708K)", "group": "glo-ops", "lat": 63.999761762195604, "lon": 36.971765910358506, "alt_km": 19149.90495082973, "timestamp": "2025-12-08T13:49:32.053817+00:00", "meta": {"OBJECT_NAME": "COSMOS 2596 (708K)", "OBJECT_ID": "2025-206B", "EPOCH": "2025-12-08T01:45:50.514048", "MEAN_MOTION": 2.13100236, "ECCENTRICITY": 0.00139998, "INCLINATION": 64.7469, "RA_OF_ASC_NODE": 321.6359, "ARG_OF_PERICENTER": 305.2634, "MEAN_ANOMALY": 112.6949, "EPHEMERIS_TYPE": 0, "CLASSIFICATION_TYPE": "U", "NORAD_CAT_ID": 65590, "ELEMENT_SET_NO": 999, "REV_AT_EPOCH": 184, "BSTAR": 0, "MEAN_MOTION_DOT": -5.1e-07, "MEAN_MOTION_DDOT": 0}, "tle": {"line1": "1 65590U 25206B   25342.07350132 -.00000051  00000+0  00000+0 0  9992", "line2": "2 65590  64.7469 321.6359 0013999 305.2634 112.6949  2.13100236  1849"}}, "geometry": {"type": "Point", "coordinates": [36.971765910358506, 63.999761762195604]}}]}